{"type": "FeatureCollection", "features": [ {"type": "Feature", "properties": {"norad_id": 66911, "name": "1998-067XX", "group": "stations", "lat": 18.396762588491217, "lon": -125.69579781672729, "alt_km": 404.62101293401065, "timestamp": "2025-12-27T08:36:17.113418+00:00", "meta": {"OBJECT_NAME": "1998-067XX", "OBJECT_ID": "1998-067XX", "EPOCH": "2025-12-26T11:52:19.081056", "MEAN_MOTION": 15.5396914, "ECCENTRICITY": 0.0003493, "INCLINATION": 51.6301, "RA_OF_ASC_NODE": 73.8915, "ARG_OF_PERICENTER": 292.742, "MEAN_ANOMALY": 67.3201, "EPHEMERIS_TYPE": 0, "CLASSIFICATION_TYPE": "U", "NORAD_CAT_ID": 66911, "ELEMENT_SET_NO": 999, "REV_AT_EPOCH": 374, "BSTAR": 0.0011709, "MEAN_MOTION_DOT": 0.00077346, "MEAN_MOTION_DDOT": 0}, "tle": {"line1": "1 66911U 98067XX  25360.49466529  .00077346  00000+0  11709-2 0  9990", "line2": "2 66911  51.6301  73.8915 0003493 292.7420  67.3201 15.53969140  3745"}}, "geometry": {"type": "Point", "coordinates": [-125.69579781672729, 18.396762588491217]}}, {"type": "Feature", "properties": {"norad_id": 66912, "name": "1998-067XY", "group": "stations", "lat": 48.252985503593656, "lon": 132.35091441638548, "alt_km": 404.1696923189447, "timestamp": "2025-12-27T08:36:17.113428+00:00", "meta": {"OBJECT_NAME": "1998-067XY", "OBJECT_ID": "1998-067XY", "EPOCH": "2025-12-26T12:12:45.084960", "MEAN_MOTION": 15.52489248, "ECCENTRICITY": 0.0003823, "INCLINATION": 51.6314, "RA_OF_ASC_NODE": 73.9869, "ARG_OF_PERICENTER": 301.1826, "MEAN_ANOMALY": 58.8789, "EPHEMERIS_TYPE": 0, "CLASSIFICATION_TYPE": "U", "NORAD_CAT_ID": 66912, "ELEMENT_SET_NO": 999, "REV_AT_EPOCH": 374, "BSTAR": 0.00078444, "MEAN_MOTION_DOT": 0.00048771, "MEAN_MOTION_DDOT": 0}, "tle": {"line1": "1 66912U 98067XY  25360.50885515  .00048771  00000+0  78444-3 0  9993", "line2": "2 66912  51.6314  73.9869 0003823 301.1826  58.8789 15.52489248  3742"}}, "geometry": {"type": "Point", "coordinates": [132.35091441638548, 48.252985503593656]}}]}